ORBCOMM FM103           
1 40091U 14040F   25217.51919319  .00000602  00000+0  16568-3 0  9994
2 40091  47.0050 144.8181 0001138 165.1490 194.9429 14.58228780588361
ORBCOMM FM114           
1 41179U 15081A   25216.92267701  .00000461  00000+0  13539-3 0  9991
2 41179  47.0034  56.6557 0002351 220.6395 139.4315 14.58271225511587
ORBCOMM FM119           
1 41180U 15081B   25216.63886710  .00000484  00000+0  14037-3 0  9997
2 41180  47.0020 327.3231 0001911 262.3346  97.7322 14.58203289512794
ORBCOMM FM105           
1 41181U 15081C   25216.75325181  .00000218  00000+0  10627-3 0  9997
2 41181  47.0031 336.4521 0002095 196.9812 163.0998 14.45251985507774
ORBCOMM FM110           
1 41182U 15081D   25217.25759197  .00000750  00000+0  19713-3 0  9998
2 41182  47.0034  54.6140 0001830  61.5773 298.5297 14.58269437511689
ORBCOMM FM118           
1 41183U 15081E   25216.94685327  .00000580  00000+0  16091-3 0  9994
2 41183  47.0046  56.3264 0002701  10.3479 349.7461 14.58257455511568
ORBCOMM FM112           
1 41184U 15081F   25216.68061211  .00000788  00000+0  20519-3 0  9996
2 41184  47.0005 326.2370 0002220 221.3137 138.7581 14.58331312512747
ORBCOMM FM113           
1 41185U 15081G   25217.54803911  .00000696  00000+0  18556-3 0  9990
2 41185  47.0021 322.4704 0002088 238.8377 121.2304 14.58300422512924
